id,name,category,address,lat,lng,notes
c1,Flat Track Coffee,coffee,"1619 E 6th St, Austin, TX 78702",30.262834,-97.726109,Horchata + a shot
c2,Cherrywood Coffeehouse,coffee,"1400 E 38 1/2 St, Austin, TX 78722",30.29734,-97.72296,"East side, lots of indoor seating"
c3,Noble Joes,coffee,"1620 E Riverside Dr, Austin, TX 78741",30.245252,-97.729001,"Food truck, riverside + south"
c4,Strange Love Coffee,coffee,"2614 E Cesar Chavez St, Austin, TX 78702",30.2555,-97.7176,East side
c5,Double Trouble,coffee,"103 N Loop Blvd E, Austin, TX 78751",30.3176,-97.7221,"Coffee + food, nearby thrifting"
c6,Merit Coffee,coffee,"1209 S Lamar Blvd, Austin, TX 78704",30.252173,-97.764172,S Lamar
c7,Opa Coffee,coffee,"2050 S Lamar Blvd, Austin, TX 78704",30.248900,-97.769499,"Coffee + Greek food, S Lamar"
c8,Mozart's Coffee,coffee,"3825 Lake Austin Blvd, Austin, TX 78703",30.295233,-97.784381,"Sit on the water, annual Christmas show"
c9,Ghoul Coffee,coffee,"2324 E Cesar Chavez St #A, Austin, TX 78702",30.2552,-97.7182,"Food truck, east side"
c10,El Tigre Coffee,coffee,"1614 E 12th St, Austin, TX 78702",30.2655,-97.7258,"Food truck, east side"
c11,Civil Goat Coffee,coffee,"5310 Airport Blvd, Austin, TX 78751",30.314511,-97.715201,
b1,Mama Dearest,drinks,"515 Pedernales St, Austin, TX 78702",30.258274,-97.714886,"Bar, east side"
b2,Frazier's,drinks,"2538 Elmont Dr, Austin, TX 78741",30.239346,-97.719954,"Divey bar, riverside"
b3,Busty's,drinks,"6214 Cameron Rd, Austin, TX 78723",30.3185,-97.7080,Great sandwiches + ambience
b4,Whisler's,drinks,"1816 E 6th St, Austin, TX 78702",30.262031,-97.722583,Bar on east 6th — tiny bar up the iron stairs outside
b5,Side Bar,drinks,"602 E 7th St, Austin, TX 78701",30.267471,-97.736404,"Cheap drinks, divey"
b6,Barbs / Swan Dive,drinks,"615 Red River St, Austin, TX 78701",30.267138,-97.736653,Dance club
b7,Dirty Bills,drinks,"511 Rio Grande St, Austin, TX 78701",30.2696,-97.7494,Good when it's not a weekend
b8,Workhorse,drinks,"100 E North Loop Blvd Ste B, Austin, TX 78751",30.3179,-97.7221,
b9,Cavalier,drinks,"2400 Webberville Rd Ste A, Austin, TX 78702",30.262882,-97.714739,
b10,Egos,drinks,"510 S Congress Ave, Austin, TX 78704",30.2563,-97.7477,Also karaoke night
b11,Shangri-La,drinks,"1016 E 6th St, Austin, TX 78702",30.265106,-97.731551,East side
b12,Techo,drinks,"2201 Manor Rd, Austin, TX 78722",30.2841,-97.7189,
b13,Tweety's,drinks,"2908 Fruth St, Austin, TX 78705",30.2955,-97.7418,
b14,Kinda Tropical,drinks,"3501 E 7th St, Austin, TX 78702",30.2565,-97.7031,
b15,Kitty Cohen's,drinks,"2211 Webberville Rd, Austin, TX 78702",30.2618,-97.7164,
b16,Butterfly Bar,drinks,"2307 Manor Rd, Austin, TX 78722",30.2839,-97.7175,
b17,West China Tea House,drinks,"1715 E 7th St, Austin, TX 78702",30.2600,-97.7205,
f1,Kome,food,"5301 Airport Blvd, Austin, TX 78751",30.314019,-97.714511,$ — Homestyle Japanese (Goldie's fav)
f2,Brunch Brunch Baby,food,"1620 E Riverside Dr, Austin, TX 78741",30.2459,-97.7308,"$ — Food truck, riverside"
f3,Kemuri Tatsu-Ya,food,"2713 E 2nd St, Austin, TX 78702",30.253835,-97.712941,$$ — Japanese izakaya
f4,Patrizi's,food,"2307 Manor Rd, Austin, TX 78722",30.283864,-97.717445,$ — Fresh made pasta
f5,De Nada,food,"4715 E Cesar Chavez St, Austin, TX 78702",30.2514,-97.7022,$ — Mexican + margs
f6,Uchi,food,"801 S Lamar Blvd, Austin, TX 78704",30.257516,-97.759806,$$ — Expensive and delicious sushi
f7,Loro,food,"2115 S Lamar Blvd, Austin, TX 78704",30.247773,-97.771273,$ — Japanese BBQ fusion
f8,OG Chuy's,food,"1728 Barton Springs Rd, Austin, TX 78704",30.263850,-97.763298,"$ — Tex mex, get the creamy jalapeno sauce"
f9,Homeslice Pizza,food,"1415 S Congress Ave, Austin, TX 78704",30.249229,-97.749521,$ — Pizza on S Congress
f10,Ramen Tatsu-Ya,food,"1234 S Lamar Blvd, Austin, TX 78704",30.253960,-97.763285,$ — Amazing ramen
f11,Tiki Tatsu-Ya,food,"1300 E 6th St, Austin, TX 78702",30.264291,-97.729202,"$ — Immersive tiki drink bar, sister to Ramen Tatsu-Ya"
f12,Bambino's Pizza,food,"979 Springdale Rd Ste 153, Austin, TX 78702",30.2642,-97.6956,"$ — Pizza, east side"
f13,Juiceland,food,"120 E 4th St, Austin, TX 78701",30.2662,-97.7426,$ — Smoothies!
f14,Foreign & Domestic,food,"306 E 53rd St, Austin, TX 78751",30.317047,-97.719490,"$$ — Oysters on Tuesdays, great menu"
f15,Clark's Oyster Bar,food,"1200 W 6th St, Austin, TX 78703",30.272986,-97.757184,$$ — Oysters
f16,Jew Boy Sliders,food,"1111 E 6th St, Austin, TX 78702",30.2613,-97.7275,$ — BEST burger/sliders
f17,Granny's Tacos,food,"1401 E 7th St, Austin, TX 78702",30.264273,-97.728058,"$ — Food truck, east side"
f18,Las Trancas,food,"1210 E Cesar Chavez St, Austin, TX 78702",30.2599,-97.7318,"$ — Food truck, east side"
f19,Nervous Charlie's Bagels,food,"5501 N Lamar Blvd Ste B101, Austin, TX 78751",30.3120,-97.7270,$ — N Lamar
f20,Rockstar Bagels,food,"1900 Rosewood Ave, Austin, TX 78702",30.269771,-97.718979,$ — Far east side
s1,Rock n Roll Rentals,shopping,"1420 W Oltorf St, Austin, TX 78704",30.2477,-97.7699,Cheap rental + monthly synth of the month
s2,Switched On,shopping,"5013 Duval St, Austin, TX 78751",30.3139,-97.7199,Buy synths & gear
s3,Guitar Center,shopping,"2525 W Anderson Ln #200, Austin, TX 78757",30.3569,-97.7352,
s4,End of an Ear,shopping,"4304 Clawson Rd, Austin, TX 78704",30.2290,-97.7843,"Record store, S Congress"
s5,Breakaway Records,shopping,"211 W North Loop Blvd, Austin, TX 78751",30.3183,-97.7245,North Loop
s6,Antone's Records,shopping,"2928 Guadalupe St, Austin, TX 78705",30.2963,-97.7426,
s7,Waterloo Records,shopping,"600 N Lamar Blvd, Austin, TX 78703",30.271685,-97.753995,
s8,Sunshine Records,shopping,"2501 E 5th St, Austin, TX 78702",30.2577,-97.7150,East side
s9,Exploded Drawing Records,shopping,"2828 1/2 Guadalupe St, Austin, TX 78705",30.2952,-97.7429,East side
s10,Drinks Records,shopping,"2001 E Cesar Chavez St, Austin, TX 78702",30.2565,-97.7233,East side
s11,BookPeople,shopping,"603 N Lamar Blvd, Austin, TX 78703",30.271635,-97.753814,Indie bookstore
s12,Lighthouse Books,shopping,"E 6th St, Austin, TX 78702",30.259961,-97.717634,East side
s13,Austin Books & Comics,shopping,"5002 N Lamar Blvd, Austin, TX 78751",30.3186,-97.7312,North Loop
s14,Kinokuniya Bookstore,shopping,"The Domain, Austin, TX 78758",30.396980,-97.726875,The Domain area
s15,Monkeywrench Books,shopping,"110 E North Loop Blvd, Austin, TX 78751",30.3180,-97.7216,
s16,Firstlight Books,shopping,"4300 Speedway, Austin, TX 78751",30.3070,-97.7299,East side
s17,Livra Books,shopping,"4101 Guadalupe St #200, Austin, TX 78751",30.3064,-97.7355,
s18,Majestic Books,shopping,"613 W 29th St, Austin, TX 78705",30.2937,-97.7444,
s19,Half Price Books,shopping,"5555 N Lamar Blvd, Austin, TX 78751",30.3238,-97.7252,N Lamar location
m1,Parish,music,"501 Brushy St, Austin, TX 78702",30.2648,-97.7340,
m2,Mohawk,music,"912 Red River St, Austin, TX 78701",30.270046,-97.736083,Live music + bar
m3,Elysium,music,"705 Red River St, Austin, TX 78701",30.2676,-97.7365,
m4,13th Floor,music,"711 Red River St, Austin, TX 78701",30.2678,-97.7367,
m5,Cheer Up Charlie's,music,"900 Red River St, Austin, TX 78701",30.2697,-97.7364,
m6,Valhalla,music,"710 Red River St, Austin, TX 78701",30.2680,-97.7368,
m7,Empire Control Room,music,"606 E 7th St, Austin, TX 78701",30.2675,-97.7360,
m8,Stubb's BBQ,music,"801 Red River St, Austin, TX 78701",30.268688,-97.736211,
m9,ACL Live / Moody Theater,music,"310 W Willie Nelson Blvd, Austin, TX 78701",30.26545,-97.74687,
m10,Continental Club,music,"1315 S Congress Ave, Austin, TX 78704",30.250501,-97.749034,S Congress
m11,Radio East,music,"3504 Montopolis Dr, Austin, TX 78744",30.2080,-97.7155,
m12,Hotel Vegas / Volstead Lounge,music,"1502 E 6th St, Austin, TX 78702",30.263395,-97.727188,
m13,White Horse,music,"500 Comal St, Austin, TX 78702",30.262566,-97.727060,
m14,The Ballroom,music,"2906 Fruth St, Austin, TX 78705",30.2960,-97.7377,
m15,Radio South,music,"4204 Menchaca Rd, Austin, TX 78704",30.231522,-97.787783,
m16,Far Out Lounge,music,"8504 S Congress Ave, Austin, TX 78745",30.1727,-97.7856,
m17,Sagebrush,music,"5500 S Congress Ave, Austin, TX 78745",30.2074,-97.7825,
m18,Little Darlin's,music,"6507 Circle S Rd, Austin, TX 78745",30.1945,-97.7768,
m19,Moody Center,music,"2001 Robert Dedman Dr, Austin, TX 78712",30.280937,-97.730652,"Major arena, UT area"
m20,Moody Amphitheater,music,"1401 Trinity St, Austin, TX 78701",30.275058,-97.736142,Waterloo Park
fe1,ACL Festival,festival,"Zilker Park, Austin, TX 78704",30.264,-97.775,Annual October music festival
fe2,Levitation,festival,"Red River St, Austin, TX 78701",30.268,-97.737,Psych music festival
fe3,Fantastic Fest,festival,"Alamo Drafthouse S Lamar, Austin, TX 78704",30.249,-97.775,Film festival at Alamo Drafthouse
fe4,Austin Psych Fest,festival,"Red River St, Austin, TX 78701",30.269,-97.737,
fe5,Church of the Friendly Ghost,festival,"E 7th St, Austin, TX 78702",30.270,-97.720,
fe6,Austin Studio Tours,festival,"Congress Ave, Austin, TX 78701",30.267,-97.743,
fe7,Moon Tower Comedy,festival,"310 W Willie Nelson Blvd, Austin, TX 78701",30.261,-97.748,Comedy festival
fe8,Austin Film Festival,festival,"Congress Ave, Austin, TX 78701",30.267,-97.743,
fe9,Putt Putt Grand Open,festival,"E 6th St, Austin, TX 78702",30.265,-97.730,
fe10,Fusebox,festival,"Congress Ave, Austin, TX 78701",30.267,-97.743,Performing arts festival
h1,Austin Bouldering Project,fitness,"979 Springdale Rd Ste 150, Austin, TX 78702",30.2632,-97.6960,
h2,Black Swan Yoga,fitness,"913 E Cesar Chavez St, Austin, TX 78702",30.2605,-97.7348,
h3,Float Tanks,fitness,"2919 Manchaca Rd Ste 105A, Austin, TX 78704",30.2417,-97.7817,
h4,Town Lake Running,fitness,"Lady Bird Lake Trail, Austin, TX 78701",30.263920,-97.753142,
h5,Critical Mass Bike Ride,fitness,"Congress Ave, Austin, TX 78701",30.267,-97.743,Monthly group ride
h6,Yellow Bike Project,fitness,"1216 Webberville Rd, Austin, TX 78721",30.2617,-97.7115,Self bike repair
h7,Indra's Awarehouse,fitness,"7904 FM 969, Austin, TX 78724",30.2900,-97.6570,Aerial / ecstatic dance
h8,People's Pharmacy,fitness,"4018 N Lamar Blvd, Austin, TX 78756",30.3077,-97.7312,Health talks
a1,Icosa,arts,"916 Springdale Rd Bldg 2 #102, Austin, TX 78702",30.2616,-97.6988,Gallery (in Canopy)
a2,Almost Real Things,arts,"820 Shelby Ln #103, Austin, TX 78745",30.2126,-97.7585,Gallery + community org
a3,Canopy,arts,"916 Springdale Rd, Austin, TX 78702",30.2616,-97.6988,Arts complex
a4,Museum of Human Achievement,arts,"3600 Lyons Rd, Austin, TX 78702",30.2614,-97.6995,
a5,Highland Collective,arts,"6401 Airport Blvd, Austin, TX 78752",30.3284,-97.7158,
a6,Bolm Studios,arts,"5305 Bolm Rd #9, Austin, TX 78721",30.2581,-97.6909,
a7,Dadalab,arts,"2008 Alexander Ave, Austin, TX 78722",30.2850,-97.7190,Gallery + community org
a8,Art Island,arts,"2008 Alexander Ave, Austin, TX 78722",30.2829,-97.7112,
a9,McLennon Pen Co. Gallery,arts,"1114 W 5th St Suite 202, Austin, TX 78703",30.2710,-97.7564,
a10,Laguna Gloria,arts,"3809 W 35th St, Austin, TX 78703",30.312146,-97.774368,Sculpture park on the water
a11,Riches Contemporary,arts,"2511 E 6th St Unit A, Austin, TX 78702",30.2585,-97.7138,
a12,The Contemporary,arts,"700 Congress Ave, Austin, TX 78701",30.2693,-97.7428,
a13,Martha's Contemporary,arts,"4115 Guadalupe St, Austin, TX 78751",30.3070,-97.7353,
a14,Hyperreal,arts,"301 Chicon St Suite A, Austin, TX 78702",30.2602,-97.7264,Film club — screens indie films east side
a15,Flavored Channels,arts,"E 6th St, Austin, TX 78702",30.265,-97.722,Community org
a16,Arthub,arts,"2801 S IH-35 Frontage Rd, Austin, TX 78741",30.2274,-97.7437,Community org
a17,Exploded Drawing,arts,"3411 E 5th St, Austin, TX 78702",30.2542,-97.7047,Community org
